NORAD_CAT_ID,OBJECT_NAME,OBJECT_TYPE,EPOCH,MEAN_MOTION,ECCENTRICITY,INCLINATION,RA_OF_ASC_NODE,ARG_OF_PERICENTER,MEAN_ANOMALY,BSTAR,MEAN_MOTION_DOT,MEAN_MOTION_DDOT,TLE_LINE0,TLE_LINE1,TLE_LINE2,SEMIMAJOR_AXIS,PERIOD,APOGEE,PERIGEE,DECAYED
53845.0,STARLINK-4753,PAYLOAD,2023-11-07 07:59:55,15.08811191,0.0001156,53.2172,165.0161,92.9539,267.1585,-0.00041905,-6.945e-05,0.0,0 STARLINK-4753,1 53845U 22114AD  23311.33328172 -.00006945  00000-0 -41905-3 0  9992,2 53845  53.2172 165.0161 0001156  92.9539 267.1585 15.08811191 63601,6917.968,95.439,540.633,539.034,0.0
53845.0,STARLINK-4753,PAYLOAD,2023-11-07 20:43:01,15.08817723,0.0001247,53.2171,162.6381,88.5401,271.5734,-0.00019055,-3.317e-05,0.0,0 STARLINK-4753,1 53845U 22114AD  23311.86320789 -.00003317  00000-0 -19055-3 0  9997,2 53845  53.2171 162.6381 0001247  88.5401 271.5734 15.08817723 63687,6917.948,95.439,540.676,538.951,0.0
53845.0,STARLINK-4753,PAYLOAD,2023-11-08 18:58:25,15.08834682,0.0001288,53.2168,158.4747,91.6046,268.5094,0.00048113,7.376e-05,0.0,0 STARLINK-4753,1 53845U 22114AD  23312.79057200  .00007376  00000-0  48113-3 0  9999,2 53845  53.2168 158.4747 0001288  91.6046 268.5094 15.08834682 63821,6917.897,95.438,540.653,538.871,0.0
53845.0,STARLINK-4753,PAYLOAD,2023-11-08 23:44:34,15.08844871,0.0001247,53.2168,157.5881,41.4789,318.6298,0.00080909,0.00012614,0.0,0 STARLINK-4753,1 53845U 22114AD  23312.98928779  .00012614  00000-0  80909-3 0  9998,2 53845  53.2168 157.5881 0001247  41.4789 318.6298 15.08844871 63859,6917.866,95.437,540.593,538.868,0.0
53845.0,STARLINK-4753,PAYLOAD,2023-11-09 14:03:02,15.0883791,9.08e-05,53.2169,154.913,30.792,329.3125,0.00054057,8.325e-05,0.0,0 STARLINK-4753,1 53845U 22114AD  23313.58545016  .00008325  00000-0  54057-3 0  9993,2 53845  53.2169 154.9130 0000908  30.7920 329.3125 15.08837910 64483,6917.887,95.438,540.38,539.124,0.0
53845.0,STARLINK-4753,PAYLOAD,2023-11-09 20:24:34,15.08858032,0.0001312,53.2159,153.7172,90.041,270.0733,0.00048236,7.401e-05,0.0,0 STARLINK-4753,1 53845U 22114AD  23313.85040018  .00007401  00000-0  48236-3 0  9991,2 53845  53.2159 153.7172 0001312  90.0410 270.0733 15.08858032 63987,6917.825,95.436,540.598,538.783,0.0
53845.0,STARLINK-4753,PAYLOAD,2023-11-10 05:56:53,15.088546,0.0001314,53.2167,151.9338,88.0483,272.0659,0.00027488,4.091e-05,0.0,0 STARLINK-4753,1 53845U 22114AD  23314.24783846  .00004091  00000-0  27488-3 0  9996,2 53845  53.2167 151.9338 0001314  88.0483 272.0659 15.08854600 64043,6917.836,95.437,540.61,538.792,0.0
53845.0,STARLINK-4753,PAYLOAD,2023-11-10 20:15:21,15.08846246,0.0001333,53.2159,149.2568,83.212,276.9024,-0.00012341,-2.252e-05,0.0,0 STARLINK-4753,1 53845U 22114AD  23314.84399793 -.00002252  00000-0 -12341-3 0  9997,2 53845  53.2159 149.2568 0001333  83.2120 276.9024 15.08846246 64131,6917.861,95.437,540.648,538.804,0.0
53845.0,STARLINK-4753,PAYLOAD,2023-11-10 23:26:07,15.08845745,0.0001409,53.2163,148.662,85.0503,275.065,-0.00012374,-2.257e-05,0.0,0 STARLINK-4753,1 53845U 22114AD  23314.97647711 -.00002257  00000-0 -12374-3 0  9998,2 53845  53.2163 148.6620 0001409  85.0503 275.0650 15.08845745 64696,6917.863,95.437,540.703,538.753,0.0
53845.0,STARLINK-4753,PAYLOAD,2023-11-11 20:06:07,15.08850554,0.0001397,53.2161,144.7966,84.4794,275.6357,-1.9103e-05,-5.92e-06,0.0,0 STARLINK-4753,1 53845U 22114AD  23315.83759112 -.00000592  00000-0 -19103-4 0  9991,2 53845  53.2161 144.7966 0001397  84.4794 275.6357 15.08850554 64824,6917.848,95.437,540.68,538.747,0.0
53845.0,STARLINK-4753,PAYLOAD,2023-11-12 11:59:59,15.08841473,0.0001493,53.2168,141.8233,83.0603,277.0559,0.00015058,2.109e-05,0.0,0 STARLINK-4753,1 53845U 22114AD  23316.49999511  .00002109  00000-0  15058-3 0  9991,2 53845  53.2168 141.8233 0001493  83.0603 277.0559 15.08841473 64388,6917.876,95.437,540.774,538.708,0.0
53845.0,STARLINK-4753,PAYLOAD,2023-11-12 19:56:55,15.08843081,0.0001478,53.2166,140.3363,82.3659,277.7501,0.00011918,1.609e-05,0.0,0 STARLINK-4753,1 53845U 22114AD  23316.83119400  .00001609  00000-0  11918-3 0  9995,2 53845  53.2166 140.3363 0001478  82.3659 277.7501 15.08843081 64976,6917.871,95.437,540.758,538.714,0.0
53845.0,STARLINK-4753,PAYLOAD,2023-11-13 05:29:14,15.08842224,0.0001479,53.2166,138.5524,84.0073,276.1087,8.7587e-05,1.106e-05,0.0,0 STARLINK-4753,1 53845U 22114AD  23317.22863456  .00001106  00000-0  87587-4 0  9994,2 53845  53.2166 138.5524 0001479  84.0073 276.1087 15.08842224 65032,6917.874,95.437,540.762,538.715,0.0
53845.0,STARLINK-4753,PAYLOAD,2023-11-13 18:12:19,15.08839284,0.0001516,53.2167,136.1736,83.6405,276.476,2.7121e-05,1.44e-06,0.0,0 STARLINK-4753,1 53845U 22114AD  23317.75855653  .00000144  00000-0  27121-4 0  9991,2 53845  53.2167 136.1736 0001516  83.6405 276.4760 15.08839284 64579,6917.883,95.438,540.796,538.699,0.0
53845.0,STARLINK-4753,PAYLOAD,2023-11-13 21:23:05,15.08839843,0.0001547,53.2168,135.5788,83.5407,276.5762,3.7837e-05,3.14e-06,0.0,0 STARLINK-4753,1 53845U 22114AD  23317.89103646  .00000314  00000-0  37837-4 0  9998,2 53845  53.2168 135.5788 0001547  83.5407 276.5762 15.08839843 65132,6917.881,95.438,540.816,538.676,0.0
53845.0,STARLINK-4753,PAYLOAD,2023-11-14 11:41:33,15.08843804,0.000151,53.2179,132.9026,84.8977,275.2187,9.2418e-05,1.183e-05,0.0,0 STARLINK-4753,1 53845U 22114AD  23318.48719511  .00001183  00000-0  92418-4 0  9999,2 53845  53.2179 132.9026 0001510  84.8977 275.2187 15.08843804 65225,6917.869,95.437,540.778,538.689,0.0
53845.0,STARLINK-4753,PAYLOAD,2023-11-14 18:03:05,15.08846995,0.0001513,53.2177,131.7134,84.9811,275.1353,0.00010954,1.456e-05,0.0,0 STARLINK-4753,1 53845U 22114AD  23318.75215197  .00001456  00000-0  10954-3 0  9997,2 53845  53.2177 131.7134 0001513  84.9811 275.1353 15.08846995 65263,6917.859,95.437,540.771,538.677,0.0
53845.0,STARLINK-4753,PAYLOAD,2023-11-15 11:32:20,15.08841105,0.0001456,53.2148,128.441,87.9944,272.1214,0.00011903,1.607e-05,0.0,0 STARLINK-4753,1 53845U 22114AD  23319.48079443  .00001607  00000-0  11903-3 0  9993,2 53845  53.2148 128.4410 0001456  87.9944 272.1214 15.08841105 64830,6917.877,95.437,540.749,538.735,0.0
53845.0,STARLINK-4753,PAYLOAD,2023-11-15 17:53:53,15.08841351,0.0001445,53.2146,127.2511,89.5781,270.5377,0.00011585,1.556e-05,0.0,0 STARLINK-4753,1 53845U 22114AD  23319.74575427  .00001556  00000-0  11585-3 0  9994,2 53845  53.2146 127.2511 0001445  89.5781 270.5377 15.08841351 65412,6917.876,95.437,540.741,538.742,0.0
53845.0,STARLINK-4753,PAYLOAD,2023-11-16 11:23:07,15.0884175,0.0001538,53.213,123.978,96.4984,263.6183,6.3708e-05,7.26e-06,0.0,0 STARLINK-4753,1 53845U 22114AD  23320.47439380  .00000726  00000-0  63708-4 0  9996,2 53845  53.2130 123.9780 0001538  96.4984 263.6183 15.08841750 65524,6917.875,95.437,540.804,538.676,0.0
53845.0,STARLINK-4753,PAYLOAD,2023-11-16 17:44:40,15.08842797,8.35e-05,53.2174,122.7911,84.4635,275.6452,6.0562e-05,6.76e-06,0.0,0 STARLINK-4753,1 53845U 22114AD  23320.73935295  .00000676  00000-0  60562-4 0  9990,2 53845  53.2174 122.7911 0000835  84.4635 275.6452 15.08842797 65023,6917.872,95.437,540.314,539.159,0.0
53845.0,STARLINK-4753,PAYLOAD,2023-11-17 11:13:55,15.08836145,3.95e-05,53.2215,119.5217,336.4865,23.6109,4.7475e-05,4.68e-06,0.0,0 STARLINK-4753,1 53845U 22114AD  23321.46799821  .00000468  00000-0  47475-4 0  9991,2 53845  53.2215 119.5217 0000395 336.4865  23.6109 15.08836145 65130,6917.892,95.438,540.03,539.484,0.0
53845.0,STARLINK-4753,PAYLOAD,2023-11-17 17:35:27,15.08835546,4.14e-05,53.2155,118.3292,47.8941,312.2087,4.3733e-05,4.09e-06,0.0,0 STARLINK-4753,1 53845U 22114AD  23321.73295850  .00000409  00000-0  43733-4 0  9992,2 53845  53.2155 118.3292 0000414  47.8941 312.2087 15.08835546 65713,6917.894,95.438,540.045,539.473,0.0
53845.0,STARLINK-4753,PAYLOAD,2023-11-18 11:04:42,15.08834156,4.69e-05,53.2084,115.0551,41.9933,318.1095,4.6473e-05,4.52e-06,0.0,0 STARLINK-4753,1 53845U 22114AD  23322.46160070  .00000452  00000-0  46473-4 0  9990,2 53845  53.2084 115.0551 0000469  41.9933 318.1095 15.08834156 65824,6917.898,95.438,540.088,539.439,0.0
53845.0,STARLINK-4753,PAYLOAD,2023-11-18 17:26:14,15.08836274,4.4e-05,53.2134,113.8678,15.9645,344.1361,5.2192e-05,5.43e-06,0.0,0 STARLINK-4753,1 53845U 22114AD  23322.72656041  .00000543  00000-0  52192-4 0  9993,2 53845  53.2134 113.8678 0000440  15.9645 344.1361 15.08836274 65329,6917.892,95.438,540.061,539.452,0.0
53845.0,STARLINK-4753,PAYLOAD,2023-11-19 14:06:15,15.08837875,0.000103,53.2173,110.0047,86.5383,273.5727,8.3722e-05,1.045e-05,0.0,0 STARLINK-4753,1 53845U 22114AD  23323.58768119  .00001045  00000-0  83722-4 0  9999,2 53845  53.2173 110.0047 0001030  86.5383 273.5727 15.08837875 65992,6917.887,95.438,540.464,539.039,0.0
53845.0,STARLINK-4753,PAYLOAD,2023-11-19 18:52:24,15.08841775,0.0001356,53.2179,109.1136,93.8976,266.2171,0.00011292,1.51e-05,0.0,0 STARLINK-4753,1 53845U 22114AD  23323.78639854  .00001510  00000-0  11292-3 0  9993,2 53845  53.2179 109.1136 0001356  93.8976 266.2171 15.08841775 65486,6917.875,95.437,540.678,538.802,0.0
53845.0,STARLINK-4753,PAYLOAD,2023-11-20 13:57:02,15.08840229,0.0001538,53.2188,105.5449,83.5881,276.5286,8.6629e-05,1.091e-05,0.0,0 STARLINK-4753,1 53845U 22114AD  23324.58128208  .00001091  00000-0  86629-4 0  9999,2 53845  53.2188 105.5449 0001538  83.5881 276.5286 15.08840229 66144,6917.88,95.438,540.809,538.681,0.0
53845.0,STARLINK-4753,PAYLOAD,2023-11-20 17:07:48,15.08841817,0.0001485,53.2187,104.9503,83.0739,277.0422,9.8667e-05,1.283e-05,0.0,0 STARLINK-4753,1 53845U 22114AD  23324.71376079  .00001283  00000-0  98667-4 0  9993,2 53845  53.2187 104.9503 0001485  83.0739 277.0422 15.08841817 66169,6917.875,95.437,540.767,538.713,0.0
53845.0,STARLINK-4753,PAYLOAD,2023-11-20 21:53:57,15.08846444,0.0001236,53.2185,104.0572,76.5902,283.5228,0.00013679,1.89e-05,0.0,0 STARLINK-4753,1 53845U 22114AD  23324.91247616  .00001890  00000-0  13679-3 0  9992,2 53845  53.2185 104.0572 0001236  76.5902 283.5228 15.08846444 65657,6917.861,95.437,540.581,538.871,0.0
